ELYSIUM STAR 2 & LFF    
1 43760U 18099C   24198.76962140  .00054667  00000+0  19524-2 0  9996
2 43760  97.5151 266.5894 0007439 165.5864 194.5589 15.28629276307759
